{
  "type": "FeatureCollection",
  "generator": "overpass-turbo",
  "copyright": "The data included in this document is from www.openstreetmap.org. The data is made available under ODbL.",
  "timestamp": "2023-11-25T19:30:00Z",
  "features": [
    {
      "type": "Feature",
      "properties": {
        "@id": "way/4610129",
        "addr:city": "Berlin",
        "addr:housenumber": "1",
        "addr:postcode": "13347",
        "addr:street": "Heinz-Galinski-Straße",
        "amenity": "hospital",
        "healthcare": "hospital",
        "name": "Jüdisches Krankenhaus Berlin",
        "name:en": "Berlin Jewish Hospital",
        "name:etymology:wikidata": "Q9268",
        "phone": "+49 30 49940",
        "toilets:wheelchair": "yes",
        "website": "https://www.juedisches-krankenhaus.de/",
        "wheelchair": "yes",
        "wheelchair:description": "Hauptgebäude liegt auf einem Hügel.",
        "wikidata": "Q319026",
        "wikimedia_commons": "Category:Jüdisches Krankenhaus Berlin",
        "@geometry": "center"
      },
      "geometry": {
        "type": "Point",
        "coordinates": [
          13.3703633,
          52.5554121
        ]
      },
      "id": "way/4610129"
    },
    {
      "type": "Feature",
      "properties": {
        "@id": "way/4637750",
        "amenity": "hospital",
        "brand": "Deutsches Rotes Kreuz",
        "brand:wikidata": "Q694104",
        "healthcare": "hospital",
        "name": "DRK Kliniken Berlin | Mitte",
        "wheelchair": "yes",
        "@geometry": "center"
      },
      "geometry": {
        "type": "Point",
        "coordinates": [
          13.3752301,
          52.5573634
        ]
      },
      "id": "way/4637750"
    },
    {
      "type": "Feature",
      "properties": {
        "@id": "way/4750929",
        "amenity": "hospital",
        "emergency": "yes",
        "healthcare": "hospital",
        "name": "Charité Campus Virchow Klinikum",
        "operator:wikidata": "Q162684",
        "phone": "+49 30 45050",
        "short_name": "CVK",
        "website": "https://www.charite.de/",
        "wheelchair": "yes",
        "wikidata": "Q2172279",
        "wikimedia_commons": "Category:Virchow-Klinikum",
        "wikipedia": "de:Rudolf-Virchow-Krankenhaus",
        "@geometry": "center"
      },
      "geometry": {
        "type": "Point",
        "coordinates": [
          13.342863,
          52.5421508
        ]
      },
      "id": "way/4750929"
    },
    {
      "type": "Feature",
      "properties": {
        "@id": "way/4765926",
        "addr:city": "Berlin",
        "addr:country": "DE",
        "addr:housenumber": "2",
        "addr:postcode": "13509",
        "addr:street": "Am Nordgraben",
        "addr:suburb": "Borsigwalde",
        "amenity": "hospital",
        "contact:phone": "+49 30 130120",
        "contact:website": "https://www.vivantes.de/huk",
        "emergency": "yes",
        "healthcare": "hospital",
        "name": "Vivantes Humboldt-Klinikum",
        "operator": "Vivantes",
        "operator:wikidata": "Q878059",
        "operator:wikipedia": "de:Vivantes",
        "wheelchair": "yes",
        "wikidata": "Q2528982",
        "wikipedia": "de:Vivantes Humboldt-Klinikum",
        "@geometry": "center"
      },
      "geometry": {
        "type": "Point",
        "coordinates": [
          13.3076971,
          52.5897621
        ]
      },
      "id": "way/4765926"
    },
    {
      "type": "Feature",
      "properties": {
        "@id": "relation/7715945",
        "addr:city": "Berlin",
        "addr:country": "DE",
        "addr:housenumber": "15-19",
        "addr:postcode": "10787",
        "addr:street": "Budapester Straße",
        "addr:suburb": "Tiergarten",
        "amenity": "hospital",
        "building": "yes",
        "contact:phone": "+493026380",
        "contact:website": "http://www.franziskus-berlin.de",
        "emergency": "yes",
        "healthcare": "hospital",
        "name": "Franziskus-Krankenhaus Berlin",
        "operator": "Thuiner Franziskanerinnen",
        "type": "multipolygon",
        "wheelchair": "yes",
        "wikidata": "Q50358758",
        "@geometry": "center"
      },
      "geometry": {
        "type": "Point",
        "coordinates": [
          13.3452165,
          52.5060328
        ]
      },
      "id": "relation/7715945"
    },
    {
      "type": "Feature",
      "properties": {
        "@id": "relation/8667439",
        "addr:city": "Berlin",
        "addr:country": "DE",
        "addr:housenumber": "26/51",
        "addr:postcode": "13587",
        "addr:street": "Schönwalder Allee",
        "addr:suburb": "Hakenfelde",
        "amenity": "hospital",
        "building": "yes",
        "emergency": "no",
        "healthcare": "hospital",
        "name": "Wichernkrankenhaus",
        "operator": "Johannesstift Diakonie",
        "type": "multipolygon",
        "wheelchair": "yes",
        "@geometry": "center"
      },
      "geometry": {
        "type": "Point",
        "coordinates": [
          13.1918532,
          52.569468
        ]
      },
      "id": "relation/8667439"
    },
    {
      "type": "Feature",
      "properties": {
        "@id": "relation/16389059",
        "addr:city": "Berlin",
        "addr:country": "DE",
        "addr:housenumber": "79",
        "addr:postcode": "10365",
        "addr:street": "Herzbergstraße",
        "addr:suburb": "Lichtenberg",
        "amenity": "hospital",
        "contact:website": "https://www.keh-berlin.de/",
        "denomination": "protestant",
        "emergency": "yes",
        "healthcare": "hospital",
        "name": "Evangelisches Krankenhaus Königin Elisabeth Herzberge",
        "operator": "Evangelisches Krankenhaus Königin Elisabeth Herzberge gGmbH",
        "religion": "christian",
        "short_name": "KEH",
        "type": "multipolygon",
        "wheelchair": "yes",
        "wikidata": "Q1381349",
        "wikipedia": "de:Evangelisches Krankenhaus Königin Elisabeth Herzberge",
        "@geometry": "center"
      },
      "geometry": {
        "type": "Point",
        "coordinates": [
          13.5095087,
          52.5274201
        ]
      },
      "id": "relation/16389059"
    },
    {
      "type": "Feature",
      "properties": {
        "@id": "way/24054786",
        "addr:city": "Berlin",
        "addr:country": "DE",
        "addr:housenumber": "5-11",
        "addr:postcode": "10115",
        "addr:street": "Große Hamburger Straße",
        "addr:suburb": "Mitte",
        "amenity": "hospital",
        "contact:phone": "+49 30 23110",
        "contact:website": "https://www.alexianer-berlin-hedwigkliniken.de/sthedwig-krankenhaus",
        "healthcare": "hospital",
        "name": "St. Hedwig-Krankenhaus",
        "name:en": "St. Hedwig Hospital",
        "name:nl": "St. Hedwigziekenhuis",
        "note": "Lageplan: https://www.alexianer-berlin-hedwigkliniken.de/fileadmin/user_upload/Berlin-Hedwig/St_Hedwig-Krankenhaus/Patienten_und_Besucher/Downloads/Lageplan_St._Hedwig-Krankenhaus.jpg",
        "toilets:wheelchair": "yes",
        "wheelchair": "yes",
        "wheelchair:description": "Im Erdgeschoss gibt es über den Haupteingang im linken Flügel ein barrierefreies WC",
        "wikidata": "Q2318710",
        "wikimedia_commons": "Category:St. Hedwig-Krankenhaus (Berlin)",
        "wikipedia": "de:St. Hedwig-Krankenhaus",
        "@geometry": "center"
      },
      "geometry": {
        "type": "Point",
        "coordinates": [
          13.3967138,
          52.5260078
        ]
      },
      "id": "way/24054786"
    },
    {
      "type": "Feature",
      "properties": {
        "@id": "way/24931203",
        "addr:city": "Berlin",
        "addr:country": "DE",
        "addr:housenumber": "13",
        "addr:postcode": "10115",
        "addr:street": "Scharnhorststraße",
        "addr:suburb": "Mitte",
        "amenity": "hospital",
        "contact:phone": "+493028410",
        "emergency": "yes",
        "healthcare": "hospital",
        "image": "https://commons.wikimedia.org/wiki/File:Berlin_Bundeswehrkrankenhaus_Berlin.jpg",
        "landuse": "military",
        "name": "Bundeswehrkrankenhaus Berlin",
        "name:etymology:wikidata": "Q1009272",
        "website": "https://berlin.bwkrankenhaus.de",
        "wheelchair": "yes",
        "wikidata": "Q1009265",
        "wikimedia_commons": "Category:Bundeswehrkrankenhaus Berlin",
        "wikipedia": "de:Bundeswehrkrankenhaus Berlin",
        "@geometry": "center"
      },
      "geometry": {
        "type": "Point",
        "coordinates": [
          13.3713474,
          52.5356575
        ]
      },
      "id": "way/24931203"
    },
    {
      "type": "Feature",
      "properties": {
        "@id": "way/24950668",
        "amenity": "hospital",
        "contact:phone": "+49 30 37020",
        "contact:website": "https://www.pgdiakonie.de/evangelisches-waldkrankenhaus-spandau/",
        "denomination": "protestant",
        "healthcare": "hospital",
        "name": "Evangelisches Waldkrankenhaus Spandau",
        "operator": "Johannesstift Diakonie",
        "religion": "christian",
        "wheelchair": "yes",
        "wikidata": "Q15110572",
        "wikipedia": "de:Evangelisches Waldkrankenhaus Spandau",
        "@geometry": "center"
      },
      "geometry": {
        "type": "Point",
        "coordinates": [
          13.1560605,
          52.5625388
        ]
      },
      "id": "way/24950668"
    },
    {
      "type": "Feature",
      "properties": {
        "@id": "way/26775078",
        "addr:city": "Berlin",
        "addr:country": "DE",
        "addr:housenumber": "221",
        "addr:postcode": "14089",
        "addr:street": "Kladower Damm",
        "amenity": "hospital",
        "emergency": "yes",
        "healthcare": "hospital",
        "name": "Gemeinschaftskrankenhaus Havelhöhe",
        "wheelchair": "yes",
        "@geometry": "center"
      },
      "geometry": {
        "type": "Point",
        "coordinates": [
          13.16295,
          52.4621451
        ]
      },
      "id": "way/26775078"
    },
    {
      "type": "Feature",
      "properties": {
        "@id": "way/30631242",
        "addr:city": "Berlin",
        "addr:country": "DE",
        "addr:housenumber": "11",
        "addr:postcode": "14165",
        "addr:street": "Walterhöferstraße",
        "addr:suburb": "Zehlendorf",
        "amenity": "hospital",
        "contact:facebook": "https://www.facebook.com/HeliosBerlinBehring",
        "contact:instagram": "https://www.instagram.com/heliosberlinbehring/",
        "emergency": "yes",
        "healthcare": "hospital",
        "healthcare:speciality": "surgery;anaesthetics;angiology;diabetology;gastroenterology;vascular_surgery;haematology;oncology;hepatology;intensive;emergency;cardiology;paediatrics;pulmonology;nuclear;trauma;orthopaedics;plastic_surgery;palliative;geriatrics;radiology",
        "loc_name": "Behring-Krankenhaus",
        "name": "Helios Klinikum Emil von Behring",
        "operator": "Helios Kliniken",
        "operator:wikidata": "Q1254151",
        "operator:wikipedia": "de:Helios Kliniken",
        "phone": "+49 30 81020",
        "toilets:wheelchair": "yes",
        "website": "https://www.helios-gesundheit.de/kliniken/berlin-klinikum-emil-von-behring/",
        "wheelchair": "yes",
        "wikidata": "Q50038610",
        "@geometry": "center"
      },
      "geometry": {
        "type": "Point",
        "coordinates": [
          13.2541807,
          52.4227073
        ]
      },
      "id": "way/30631242"
    },
    {
      "type": "Feature",
      "properties": {
        "@id": "way/31284439",
        "addr:city": "Berlin",
        "addr:country": "DE",
        "addr:housenumber": "40",
        "addr:postcode": "14163",
        "addr:street": "Argentinische Allee",
        "addr:suburb": "Zehlendorf",
        "amenity": "hospital",
        "contact:facebook": "https://www.facebook.com/krankenhauswaldfriede/",
        "contact:youtube": "https://www.youtube.com/channel/UCSmbPhp0uj_zWh64ocSXlyQ",
        "denomination": "seventh_day_adventist",
        "email": "info@waldfriede.de",
        "emergency": "yes",
        "healthcare": "hospital",
        "healthcare:speciality": "proctology;surgery;intensive;gynaecology;trauma;internal;oncology;palliative;radiology;emergency",
        "name": "Krankenhaus Waldfriede",
        "operator": "Krankenhaus Waldfriede e. V",
        "operator:type": "private_non_profit",
        "phone": "+49 30 818100",
        "religion": "christian",
        "start_date": "1920-04-15",
        "website": "https://www.krankenhaus-waldfriede.de/",
        "wheelchair": "yes",
        "wikidata": "Q3145246",
        "wikipedia": "de:Krankenhaus Waldfriede",
        "@geometry": "center"
      },
      "geometry": {
        "type": "Point",
        "coordinates": [
          13.2398662,
          52.4444977
        ]
      },
      "id": "way/31284439"
    },
    {
      "type": "Feature",
      "properties": {
        "@id": "way/32204608",
        "addr:city": "Berlin",
        "addr:country": "DE",
        "addr:housenumber": "9",
        "addr:postcode": "12559",
        "addr:street": "Erwin-Bock-Straße",
        "addr:suburb": "Köpenick",
        "amenity": "hospital",
        "brand": "Deutsches Rotes Kreuz",
        "brand:wikidata": "Q694104",
        "brand:wikipedia": "de:Deutsches Rotes Kreuz",
        "email": "koepenick@drk-kliniken-berlin.de",
        "emergency": "yes",
        "fax": "+49 30 30353320",
        "health_facility:type": "hospital",
        "healthcare": "hospital",
        "medical_system:western": "yes",
        "name": "DRK Kliniken Berlin - Köpenick",
        "name:de": "DRK Kliniken Berlin - Köpenick",
        "name:en": "German Red Cross Hospital Berlin Köpenick",
        "operator": "DRK-Schwesternschaft Berlin e.V.",
        "phone": "+49 30 30353000",
        "source": "Geoportal Berlin / Hauskoordinaten",
        "website": "https://www.drk-kliniken-berlin.de/koepenick",
        "wheelchair": "yes",
        "wikidata": "Q19963300",
        "wikimedia_commons": "Category:DRK-Kliniken-Köpenick (Berlin-Köpenick)",
        "@geometry": "center"
      },
      "geometry": {
        "type": "Point",
        "coordinates": [
          13.595722,
          52.4401091
        ]
      },
      "id": "way/32204608"
    },
    {
      "type": "Feature",
      "properties": {
        "@id": "way/32424425",
        "addr:city": "Berlin",
        "addr:housenumber": "125",
        "addr:postcode": "12157",
        "addr:street": "Rubensstraße",
        "addr:suburb": "Schöneberg",
        "amenity": "hospital",
        "barrier": "wall",
        "contact:website": "https://www.vivantes.de/avk",
        "emergency": "yes",
        "healthcare": "hospital",
        "healthcare:speciality": "urology;neurology;cardiology;vascular_surgery;psychiatry;gynaecology",
        "loc_name": "Auguste-Victoria-Krankenhaus",
        "name": "Auguste-Viktoria-Klinikum",
        "operator": "Vivantes",
        "operator:type": "public",
        "operator:wikidata": "Q878059",
        "operator:wikipedia": "de:Vivantes",
        "phone": "+49 30 130200",
        "short_name": "AVK",
        "wheelchair": "yes",
        "wikidata": "Q766049",
        "wikipedia": "de:Auguste-Viktoria-Klinikum Berlin",
        "@geometry": "center"
      },
      "geometry": {
        "type": "Point",
        "coordinates": [
          13.346551,
          52.4620771
        ]
      },
      "id": "way/32424425"
    },
    {
      "type": "Feature",
      "properties": {
        "@id": "way/46839073",
        "addr:city": "Berlin",
        "addr:country": "DE",
        "addr:housenumber": "32",
        "addr:postcode": "10365",
        "addr:street": "Fanningerstraße",
        "alt_name": "Oskar-Ziethen-Krankenhaus",
        "amenity": "hospital",
        "contact:website": "https://www.sana-kl.de/",
        "healthcare": "hospital",
        "name": "Sana Klinikum Lichtenberg",
        "operator": "Sana Kliniken Berlin-Brandenburg GmbH",
        "wheelchair": "yes",
        "wikidata": "Q2033508",
        "wikipedia": "de:Oskar-Ziethen-Krankenhaus",
        "@geometry": "center"
      },
      "geometry": {
        "type": "Point",
        "coordinates": [
          13.4954295,
          52.5133024
        ]
      },
      "id": "way/46839073"
    },
    {
      "type": "Feature",
      "properties": {
        "@id": "way/48992251",
        "addr:city": "Berlin",
        "addr:country": "DE",
        "addr:housenumber": "23",
        "addr:postcode": "12099",
        "addr:street": "Wenckebachstraße",
        "addr:suburb": "Tempelhof",
        "amenity": "hospital",
        "healthcare": "hospital",
        "heritage": "4",
        "heritage:operator": "lda",
        "lda:criteria": "Gesamtanlage",
        "name": "Vivantes Wenckebach-Klinikum",
        "old_name": "2. Garnison-Lazarett",
        "operator": "Vivantes",
        "operator:wikidata": "Q878059",
        "operator:wikipedia": "de:Vivantes",
        "phone": "+49 30 130190",
        "ref:lda": "09055132",
        "source": "Geoportal Berlin / Hauskoordinaten",
        "website": "https://www.vivantes.de/wenckebach-klinikum",
        "wheelchair": "yes",
        "wikidata": "Q88902561",
        "wikipedia": "de:Vivantes Wenckebach-Klinikum",
        "@geometry": "center"
      },
      "geometry": {
        "type": "Point",
        "coordinates": [
          13.390259,
          52.4590155
        ]
      },
      "id": "way/48992251"
    },
    {
      "type": "Feature",
      "properties": {
        "@id": "way/49184262",
        "addr:city": "Berlin",
        "addr:country": "DE",
        "addr:housenumber": "30",
        "addr:postcode": "13467",
        "addr:street": "Kurhausstraße",
        "amenity": "hospital",
        "email": "info@dominikus-berlin.de",
        "emergency": "yes",
        "fax": "+4930 4042 408",
        "healthcare": "hospital",
        "name": "Dominikus-Krankenhaus",
        "phone": "+4930 4092 0",
        "website": "http://www.dominikus-berlin.de/",
        "@geometry": "center"
      },
      "geometry": {
        "type": "Point",
        "coordinates": [
          13.293987,
          52.624691
        ]
      },
      "id": "way/49184262"
    },
    {
      "type": "Feature",
      "properties": {
        "@id": "way/53038853",
        "addr:city": "Berlin",
        "addr:country": "DE",
        "addr:housenumber": "130",
        "addr:postcode": "14050",
        "addr:street": "Spandauer Damm",
        "addr:suburb": "Westend",
        "amenity": "hospital",
        "brand": "Deutsches Rotes Kreuz",
        "brand:wikidata": "Q694104",
        "brand:wikipedia": "de:Deutsches Rotes Kreuz",
        "contact:email": "email@drk-kliniken-westend.de",
        "contact:fax": "+49 30 3035-4849",
        "contact:phone": "+49 30 3035-0",
        "contact:website": "http://www.drk-kliniken-berlin.de/westend/lageplan-der-drk-kliniken-berlin-westend/",
        "emergency": "yes",
        "healthcare": "hospital",
        "name": "DRK Kliniken Berlin Westend",
        "opening_hours": "24/7",
        "operator": "Deutsches Rotes Kreuz Schwesternschaft Berlin Gemeinnützige Krankenhaus GmbH",
        "wheelchair": "yes",
        "wikidata": "Q88891389",
        "wikipedia": "de:DRK Kliniken Berlin Westend",
        "@geometry": "center"
      },
      "geometry": {
        "type": "Point",
        "coordinates": [
          13.2772976,
          52.5202624
        ]
      },
      "id": "way/53038853"
    },
    {
      "type": "Feature",
      "properties": {
        "@id": "way/53224317",
        "addr:city": "Berlin",
        "addr:housenumber": "30",
        "addr:postcode": "12203",
        "addr:street": "Hindenburgdamm",
        "amenity": "hospital",
        "emergency": "yes",
        "healthcare": "hospital",
        "healthcare:speciality": "general",
        "name": "Charité – Campus Benjamin Franklin",
        "name:etymology:wikidata": "Q817560",
        "operator": "Charité",
        "operator:type": "public",
        "operator:wikidata": "Q162684",
        "short_name": "CBF",
        "toilets:wheelchair": "yes",
        "website": "https://www.charite.de/die_charite/campi/campus_benjamin_franklin/",
        "wheelchair": "yes",
        "wikidata": "Q30254110",
        "@geometry": "center"
      },
      "geometry": {
        "type": "Point",
        "coordinates": [
          13.3208297,
          52.4420418
        ]
      },
      "id": "way/53224317"
    },
    {
      "type": "Feature",
      "properties": {
        "@id": "way/69869582",
        "addr:city": "Berlin",
        "addr:country": "DE",
        "addr:housenumber": "1",
        "addr:postcode": "12526",
        "addr:street": "Höhensteig",
        "addr:suburb": "Bohnsdorf",
        "amenity": "hospital",
        "emergency": "yes",
        "healthcare": "hospital",
        "name": "Krankenhaus Hedwigshöhe",
        "website": "https://www.alexianer-berlin-hedwigkliniken.de/krankenhaus-hedwigshoehe/einrichtungen/ambulantes-op-zentrum-aoz/",
        "wheelchair": "yes",
        "wikidata": "Q1764107",
        "@geometry": "center"
      },
      "geometry": {
        "type": "Point",
        "coordinates": [
          13.570057,
          52.4060883
        ]
      },
      "id": "way/69869582"
    },
    {
      "type": "Feature",
      "properties": {
        "@id": "way/93478285",
        "amenity": "hospital",
        "building": "yes",
        "contact:fax": "+49 30 82630-51",
        "contact:phone": "+49 30 82630-52",
        "healthcare": "hospital",
        "name": "Klinik am Roseneck",
        "operator": "Service KG Gesellschaft für Klinik-, Hotel- und Gaststätten-Dienste mbH & Co.",
        "@geometry": "center"
      },
      "geometry": {
        "type": "Point",
        "coordinates": [
          13.2814545,
          52.4792516
        ]
      },
      "id": "way/93478285"
    },
    {
      "type": "Feature",
      "properties": {
        "@id": "way/94691063",
        "addr:city": "Berlin",
        "addr:country": "DE",
        "addr:housenumber": "69",
        "addr:postcode": "14129",
        "addr:street": "Potsdamer Chaussee",
        "addr:suburb": "Nikolassee",
        "amenity": "hospital",
        "healthcare": "hospital",
        "healthcare:speciality": "psychiatry;neurology",
        "name": "Kliniken im Theodor-Wenzel-Werk",
        "phone": "+49 30 81090",
        "website": "https://tww-berlin.de/kliniken",
        "@geometry": "center"
      },
      "geometry": {
        "type": "Point",
        "coordinates": [
          13.2052108,
          52.4226369
        ]
      },
      "id": "way/94691063"
    },
    {
      "type": "Feature",
      "properties": {
        "@id": "way/99146927",
        "amenity": "hospital",
        "healthcare": "hospital",
        "name": "Maria Heimsuchung Caritas Klinikum Pankow",
        "name:etymology:wikidata": "Q691810",
        "wheelchair": "yes",
        "@geometry": "center"
      },
      "geometry": {
        "type": "Point",
        "coordinates": [
          13.4141205,
          52.5709842
        ]
      },
      "id": "way/99146927"
    },
    {
      "type": "Feature",
      "properties": {
        "@id": "way/114201147",
        "addr:city": "Berlin",
        "addr:country": "DE",
        "addr:housenumber": "2",
        "addr:postcode": "14059",
        "addr:street": "Heubnerweg",
        "addr:suburb": "Charlottenburg",
        "amenity": "hospital",
        "contact:email": "info@schlosspark-klinik.de",
        "contact:fax": "+49 30 32641685",
        "contact:phone": "+49 30 32640",
        "contact:website": "http://www.schlosspark-klinik.de",
        "healthcare": "hospital",
        "name": "Schlosspark-Klinik",
        "note": "Geprüft am 27. Dez 2015",
        "wheelchair": "yes",
        "wikidata": "Q19308767",
        "wikipedia": "de:Schlosspark-Klinik",
        "@geometry": "center"
      },
      "geometry": {
        "type": "Point",
        "coordinates": [
          13.2897238,
          52.5222814
        ]
      },
      "id": "way/114201147"
    },
    {
      "type": "Feature",
      "properties": {
        "@id": "way/119398219",
        "addr:city": "Berlin",
        "addr:country": "DE",
        "addr:housenumber": "12",
        "addr:postcode": "10713",
        "addr:street": "Paretzer Straße",
        "addr:suburb": "Wilmersdorf",
        "amenity": "hospital",
        "contact:instagram": "https://www.instagram.com/sanktgertrauden",
        "contact:website": "http://www.sankt-gertrauden.de",
        "emergency": "yes",
        "healthcare": "hospital",
        "healthcare:speciality": "vascular_surgery;angiology;ophthalmology;intensive;anaesthetics;diabetology;gynaecology;gastroenterology;geriatrics;otolaryngology;cardiology;neurosurgery;trauma;emergency",
        "name": "Sankt Gertrauden-Krankenhaus",
        "operator": "Gesellschaft der Katharinenschwestern",
        "phone": "+49 30 82720",
        "ref:vatin": "DE205129691",
        "toilets:wheelchair": "yes",
        "wheelchair": "yes",
        "wikidata": "Q20181173",
        "wikipedia": "de:Sankt-Gertrauden-Krankenhaus",
        "@geometry": "center"
      },
      "geometry": {
        "type": "Point",
        "coordinates": [
          13.3172076,
          52.4803471
        ]
      },
      "id": "way/119398219"
    },
    {
      "type": "Feature",
      "properties": {
        "@id": "way/132056990",
        "addr:city": "Berlin",
        "addr:country": "DE",
        "addr:housenumber": "27-31",
        "addr:postcode": "14193",
        "addr:street": "Caspar-Theyß-Straße",
        "addr:suburb": "Schmargendorf",
        "amenity": "hospital",
        "barrier": "fence",
        "contact:email": "martin-luther@jsd.de",
        "contact:fax": "+49 30 8955-2015",
        "contact:phone": "+49 30 89550",
        "contact:website": "https://www.johannesstift-diakonie.de/medizinische-versorgung/martin-luther-krankenhaus",
        "emergency": "yes",
        "healthcare": "hospital",
        "healthcare:speciality": "emergency;surgery;anaesthetics;intensive;gastroenterology;neonatology;vascular_surgery;gynaecology;internal;cardiology;oncology;orthopaedics;trauma;plastic_surgery;radiology;nuclear",
        "name": "Martin-Luther-Krankenhaus",
        "name:etymology:wikidata": "Q9554",
        "note": "Geprüft am 25./26. Dez 2015",
        "operator": "Johannesstift Diakonie",
        "wheelchair": "yes",
        "wikidata": "Q1903245",
        "@geometry": "center"
      },
      "geometry": {
        "type": "Point",
        "coordinates": [
          13.2918016,
          52.490483
        ]
      },
      "id": "way/132056990"
    },
    {
      "type": "Feature",
      "properties": {
        "@id": "way/137033906",
        "addr:city": "Berlin",
        "addr:country": "DE",
        "addr:housenumber": "61",
        "addr:postcode": "13347",
        "addr:street": "Reinickendorfer Straße",
        "addr:suburb": "Wedding",
        "amenity": "hospital",
        "healthcare": "hospital",
        "healthcare:speciality": "geriatrics",
        "name": "Evangelisches Geriatriezentrum Berlin",
        "operator": "Johannesstift Diakonie",
        "short_name": "EGZB",
        "website": "http://www.egzb.de/",
        "wheelchair": "limited",
        "@geometry": "center"
      },
      "geometry": {
        "type": "Point",
        "coordinates": [
          13.3637902,
          52.5545167
        ]
      },
      "id": "way/137033906"
    },
    {
      "type": "Feature",
      "properties": {
        "@id": "way/138144499",
        "addr:city": "Berlin",
        "addr:country": "DE",
        "addr:housenumber": "21",
        "addr:postcode": "12351",
        "addr:street": "Juchaczweg",
        "addr:suburb": "Buckow",
        "amenity": "hospital",
        "emergency": "no",
        "healthcare": "hospital",
        "healthcare:speciality": "geriatrics",
        "name": "Ida-Wolff-Krankenhaus",
        "website": "https://www.vivantes.de/ida-wolff-krankenhaus",
        "wheelchair": "yes",
        "@geometry": "center"
      },
      "geometry": {
        "type": "Point",
        "coordinates": [
          13.4578379,
          52.434319
        ]
      },
      "id": "way/138144499"
    },
    {
      "type": "Feature",
      "properties": {
        "@id": "way/138150297",
        "addr:city": "Berlin",
        "addr:country": "DE",
        "addr:housenumber": "48",
        "addr:postcode": "12351",
        "addr:street": "Rudower Straße",
        "addr:suburb": "Buckow",
        "amenity": "hospital",
        "check_date": "2023-10-15",
        "emergency": "yes",
        "healthcare": "hospital",
        "healthcare:speciality": "obstetrics;intensive;psychiatry;ophthalmology;orthopaedics;gynaecology;paediatrics;surgery;emergency;radiology;internal;anaesthesiology;dermatology;ear_nose_throat;neurology;nuclear_medicine;palliative_medicine;pathology;haematology;urology",
        "internet_access": "wlan",
        "internet_access:fee": "no",
        "name": "Vivantes Klinikum - Neukölln",
        "operator": "Vivantes",
        "operator:type": "public",
        "operator:wikidata": "Q878059",
        "operator:wikipedia": "de:Vivantes",
        "website": "https://www.vivantes.de/knk/",
        "wikidata": "Q2528989",
        "@geometry": "center"
      },
      "geometry": {
        "type": "Point",
        "coordinates": [
          13.4589236,
          52.4372389
        ]
      },
      "id": "way/138150297"
    },
    {
      "type": "Feature",
      "properties": {
        "@id": "way/138215763",
        "addr:city": "Berlin",
        "addr:country": "DE",
        "addr:housenumber": "25-39",
        "addr:postcode": "14055",
        "addr:street": "Dickensweg",
        "addr:suburb": "Westend",
        "amenity": "hospital",
        "contact:email": "info@paulinenkrankenhaus.de",
        "contact:fax": "+49 30 30008-220",
        "contact:phone": "+49 30 30008-0",
        "contact:website": "http://www.paulinenkrankenhaus.de/",
        "healthcare": "hospital",
        "name": "Paulinen Krankenhaus",
        "operator": "Paulinenhaus Krankenanstalt e.V.",
        "phone": "+49 30 300080",
        "website": "https://www.paulinenkrankenhaus.de/",
        "wheelchair": "limited",
        "wikidata": "Q29793946",
        "@geometry": "center"
      },
      "geometry": {
        "type": "Point",
        "coordinates": [
          13.2335372,
          52.5077734
        ]
      },
      "id": "way/138215763"
    },
    {
      "type": "Feature",
      "properties": {
        "@id": "way/158262343",
        "addr:city": "Berlin",
        "addr:country": "DE",
        "addr:housenumber": "7",
        "addr:postcode": "12683",
        "addr:street": "Warener Straße",
        "addr:suburb": "Biesdorf",
        "amenity": "hospital",
        "capacity:beds": "550",
        "contact:email": "service@ukb.de",
        "contact:instagram": "https://www.instagram.com/ukbberlin/",
        "contact:phone": "+49 30 56810",
        "contact:website": "http://www.ukb.de/",
        "emergency": "yes",
        "health_facility:type": "hospital",
        "healthcare": "hospital",
        "medical_system:western": "yes",
        "name": "Unfallkrankenhaus Berlin",
        "opening_hours": "24/7",
        "operator": "Verein für Berufsgenossenschaftliche Heilbehandlung Berlin e.V.",
        "staff_count:doctors": "223",
        "staff_count:nurses": "399",
        "toilets:wheelchair": "yes",
        "wheelchair": "yes",
        "wikidata": "Q2493169",
        "wikimedia_commons": "Category:Unfallkrankenhaus Berlin",
        "wikipedia": "de:Unfallkrankenhaus Berlin",
        "@geometry": "center"
      },
      "geometry": {
        "type": "Point",
        "coordinates": [
          13.5685101,
          52.5191371
        ]
      },
      "id": "way/158262343"
    },
    {
      "type": "Feature",
      "properties": {
        "@id": "way/160806223",
        "addr:city": "Berlin",
        "addr:country": "DE",
        "addr:housenumber": "45",
        "addr:postcode": "12621",
        "addr:street": "Myslowitzer Straße",
        "addr:suburb": "Kaulsdorf",
        "amenity": "hospital",
        "beds": "434",
        "emergency": "yes",
        "healthcare": "hospital",
        "healthcare:speciality": "emergency;orthopaedics;gynaecology;internal;intensive;psychiatry;cardiology;surgery;geriatrics",
        "name": "Vivantes Klinikum Kaulsdorf",
        "operator": "Vivantes",
        "operator:type": "public",
        "operator:wikidata": "Q878059",
        "operator:wikipedia": "de:Vivantes",
        "website": "https://www.vivantes.de/khd",
        "wheelchair": "yes",
        "wikidata": "Q2528984",
        "@geometry": "center"
      },
      "geometry": {
        "type": "Point",
        "coordinates": [
          13.5938599,
          52.5067052
        ]
      },
      "id": "way/160806223"
    },
    {
      "type": "Feature",
      "properties": {
        "@id": "way/168967363",
        "addr:city": "Berlin",
        "addr:country": "DE",
        "addr:housenumber": "15",
        "addr:postcode": "12101",
        "addr:street": "Wüsthoffstraße",
        "addr:suburb": "Tempelhof",
        "amenity": "hospital",
        "denomination": "roman_catholic",
        "healthcare": "hospital",
        "name": "St. Joseph Krankenhaus",
        "name:en": "St. Joseph Hospital",
        "name:nl": "St. Joseph Ziekenhuis",
        "operator:type": "religious",
        "religion": "christian",
        "toilets:wheelchair": "yes",
        "website": "https://www.sjk.de/",
        "wheelchair": "yes",
        "wikidata": "Q50358759",
        "@geometry": "center"
      },
      "geometry": {
        "type": "Point",
        "coordinates": [
          13.3729563,
          52.478104
        ]
      },
      "id": "way/168967363"
    },
    {
      "type": "Feature",
      "properties": {
        "@id": "way/188899872",
        "addr:city": "Berlin",
        "addr:country": "DE",
        "addr:housenumber": "50",
        "addr:postcode": "13125",
        "addr:street": "Schwanebecker Chaussee",
        "amenity": "hospital",
        "emergency": "yes",
        "healthcare": "hospital",
        "name": "HELIOS Klinikum Berlin Buch",
        "operator": "Helios Kliniken",
        "operator:wikidata": "Q1254151",
        "phone": "+49 30 94010",
        "toilets:wheelchair": "yes",
        "website": "http://www.helios-kliniken.de/klinik/berlin-buch.html",
        "wheelchair": "yes",
        "wikidata": "Q1602557",
        "@geometry": "center"
      },
      "geometry": {
        "type": "Point",
        "coordinates": [
          13.508294,
          52.6312045
        ]
      },
      "id": "way/188899872"
    },
    {
      "type": "Feature",
      "properties": {
        "@id": "way/229099728",
        "amenity": "hospital",
        "contact:website": "https://www.bodelschwingh-klinik.de/",
        "emergency": "no",
        "healthcare": "hospital",
        "healthcare:speciality": "psychiatry",
        "name": "Friedrich von Bodelschwingh-Klinik",
        "@geometry": "center"
      },
      "geometry": {
        "type": "Point",
        "coordinates": [
          13.3297327,
          52.4896215
        ]
      },
      "id": "way/229099728"
    },
    {
      "type": "Feature",
      "properties": {
        "@id": "way/266782475",
        "addr:city": "Berlin",
        "addr:country": "DE",
        "addr:housenumber": "1",
        "addr:postcode": "14055",
        "addr:street": "Pillkaller Allee",
        "addr:suburb": "Westend",
        "amenity": "hospital",
        "contact:email": "verwaltung@malteser-krankenhaus-berlin.de",
        "contact:fax": "+49 30 30001437",
        "contact:phone": "+49 30 300010",
        "contact:website": "https://malteser-krankenhaus-berlin.de/",
        "healthcare": "hospital",
        "name": "Malteser-Krankenhaus",
        "operator": "Malteser-Werk Berlin e.V.",
        "operator:type": "religious",
        "religion": "christian",
        "wheelchair": "yes",
        "wikidata": "Q77078238",
        "@geometry": "center"
      },
      "geometry": {
        "type": "Point",
        "coordinates": [
          13.2518888,
          52.5088183
        ]
      },
      "id": "way/266782475"
    },
    {
      "type": "Feature",
      "properties": {
        "@id": "way/305989452",
        "addr:city": "Berlin",
        "addr:country": "DE",
        "addr:housenumber": "1",
        "addr:postcode": "10967",
        "addr:street": "Dieffenbachstraße",
        "addr:suburb": "Kreuzberg",
        "amenity": "hospital",
        "contact:phone": "+49 30 13010",
        "contact:website": "http://www.vivantes.de/kau",
        "emergency": "yes",
        "healthcare": "hospital",
        "name": "Vivantes Klinikum am Urban",
        "operator": "Vivantes",
        "operator:wikidata": "Q878059",
        "operator:wikipedia": "de:Vivantes",
        "reg_name": "Urban-Krankenhaus",
        "start_date": "1887",
        "wheelchair": "yes",
        "wikidata": "Q1297273",
        "wikimedia_commons": "Category:Krankenhaus Am Urban",
        "wikipedia": "de:Vivantes Klinikum Am Urban",
        "@geometry": "center"
      },
      "geometry": {
        "type": "Point",
        "coordinates": [
          13.4085942,
          52.4939563
        ]
      },
      "id": "way/305989452"
    },
    {
      "type": "Feature",
      "properties": {
        "@id": "way/311366537",
        "addr:city": "Berlin",
        "addr:housenumber": "9733",
        "addr:postcode": "21804",
        "addr:street": "Healthway Drive",
        "alt_name": "Atlantic General Campus",
        "amenity": "hospital",
        "emergency": "yes",
        "gnis:feature_id": "2094855",
        "healthcare": "hospital",
        "name": "Atlantic General Hospital",
        "phone": "+1 410 641 1100",
        "website": "https://www.atlanticgeneral.org/",
        "wikidata": "Q4816442",
        "@geometry": "center"
      },
      "geometry": {
        "type": "Point",
        "coordinates": [
          -75.2101391,
          38.3381601
        ]
      },
      "id": "way/311366537"
    },
    {
      "type": "Feature",
      "properties": {
        "@id": "node/366666875",
        "addr:state": "VT",
        "amenity": "hospital",
        "ele": "303",
        "emergency": "yes",
        "gnis:county_name": "Washington",
        "gnis:feature_id": "1919019",
        "gnis:import_uuid": "57871b70-0100-4405-bb30-88b2e001a944",
        "gnis:reviewed": "no",
        "healthcare": "hospital",
        "name": "Central Vermont Hospital",
        "source": "USGS Geonames"
      },
      "geometry": {
        "type": "Point",
        "coordinates": [
          -72.5606633,
          44.2203381
        ]
      },
      "id": "node/366666875"
    },
    {
      "type": "Feature",
      "properties": {
        "@id": "way/378933899",
        "amenity": "hospital",
        "healthcare": "hospital",
        "name": "Park Klinik Weißensee",
        "wheelchair": "yes",
        "wikidata": "Q1689390",
        "wikimedia_commons": "Category:Park-Klinik Weißensee",
        "wikipedia": "de:Park-Klinik Weißensee",
        "@geometry": "center"
      },
      "geometry": {
        "type": "Point",
        "coordinates": [
          13.4507321,
          52.5554939
        ]
      },
      "id": "way/378933899"
    },
    {
      "type": "Feature",
      "properties": {
        "@id": "way/380400580",
        "addr:city": "Berlin",
        "addr:housenumber": "10-14",
        "addr:postcode": "14129",
        "addr:street": "Spanische Allee",
        "amenity": "hospital",
        "contact:facebook": "https://www.facebook.com/teamhubertus/",
        "contact:instagram": "https://www.instagram.com/teamhubertus/",
        "contact:youtube": "https://www.youtube.com/c/JohannesstiftDiakonie",
        "emergency": "yes",
        "healthcare": "hospital",
        "healthcare:speciality": "angiology;geriatrics;internal;cardiology;orthopaedics;trauma;emergency;surgery;intensive;radiology",
        "name": "Evangelisches Krankenhaus Hubertus",
        "operator": "Evangelisches Krankenhaus Hubertus Krankenhausbetriebs gGmbH",
        "operator:type": "private_non_profit",
        "phone": "+49 30 810080",
        "website": "https://www.johannesstift-diakonie.de/medizinische-versorgung/evangelisches-krankenhaus-hubertus",
        "wheelchair": "yes",
        "@geometry": "center"
      },
      "geometry": {
        "type": "Point",
        "coordinates": [
          13.219448,
          52.4308731
        ]
      },
      "id": "way/380400580"
    },
    {
      "type": "Feature",
      "properties": {
        "@id": "way/391245035",
        "addr:city": "Berlin",
        "addr:housenumber": "115",
        "addr:postcode": "13355",
        "addr:street": "Bernauer Straße",
        "amenity": "hospital",
        "healthcare": "hospital",
        "name": "Lazarus-Kranken- und Diakonissenhaus",
        "phone": "+49 30 467057160",
        "website": "https://www.lazarus-diakonie.de/",
        "wheelchair": "yes",
        "wikidata": "Q1208285",
        "wikipedia": "de:Diakoniestiftung Lazarus",
        "@geometry": "center"
      },
      "geometry": {
        "type": "Point",
        "coordinates": [
          13.3878055,
          52.5350773
        ]
      },
      "id": "way/391245035"
    },
    {
      "type": "Feature",
      "properties": {
        "@id": "way/393510169",
        "addr:city": "Berlin",
        "addr:country": "DE",
        "addr:housenumber": "6",
        "addr:postcode": "13585",
        "addr:street": "Neue Bergstraße",
        "addr:suburb": "Spandau",
        "amenity": "hospital",
        "contact:phone": "+49 30 130130",
        "contact:phone:emergency": "+49 30 130132070",
        "contact:website": "http://www.vivantes.de/ksp",
        "healthcare": "hospital",
        "name": "Vivantes Klinikum Spandau",
        "operator": "Vivantes",
        "operator:wikidata": "Q878059",
        "operator:wikipedia": "de:Vivantes",
        "wheelchair": "yes",
        "wikidata": "Q62269171",
        "wikimedia_commons": "Category:Klinikum Spandau",
        "wikipedia": "de:Vivantes Klinikum Spandau",
        "@geometry": "center"
      },
      "geometry": {
        "type": "Point",
        "coordinates": [
          13.2069576,
          52.5496169
        ]
      },
      "id": "way/393510169"
    },
    {
      "type": "Feature",
      "properties": {
        "@id": "way/442949421",
        "addr:city": "Berlin",
        "addr:housenumber": "130",
        "addr:postcode": "05602",
        "addr:street": "Fisher Road",
        "amenity": "hospital",
        "beds": "122",
        "emergency": "yes",
        "gnis:feature_id": "1919018",
        "healthcare": "hospital",
        "name": "Central Vermont Medical Center",
        "old_name": "Central Vermont Hospital",
        "opening_hours": "24/7",
        "operator": "University of Vermont Health Network",
        "phone": "+1 802 371 4100",
        "website": "https://www.cvmc.org/",
        "wikidata": "Q5061990",
        "wikipedia": "en:Central Vermont Medical Center",
        "@geometry": "center"
      },
      "geometry": {
        "type": "Point",
        "coordinates": [
          -72.5612273,
          44.2206687
        ]
      },
      "id": "way/442949421"
    },
    {
      "type": "Feature",
      "properties": {
        "@id": "way/443460687",
        "addr:city": "Berlin",
        "addr:housenumber": "59",
        "addr:postcode": "03570",
        "addr:street": "Page Hill Road",
        "amenity": "hospital",
        "emergency": "yes",
        "healthcare": "hospital",
        "name": "Androscoggin Valley Hospital",
        "phone": "+1 603 752 2200",
        "website": "http://www.avhnh.org/",
        "wikidata": "Q64773833",
        "@geometry": "center"
      },
      "geometry": {
        "type": "Point",
        "coordinates": [
          -71.1550764,
          44.4871495
        ]
      },
      "id": "way/443460687"
    },
    {
      "type": "Feature",
      "properties": {
        "@id": "way/484953108",
        "addr:city": "Berlin",
        "addr:housenumber": "100",
        "addr:postcode": "08009",
        "addr:street": "Townsend Avenue",
        "amenity": "hospital",
        "emergency": "yes",
        "gnis:feature_id": "881710",
        "healthcare": "hospital",
        "name": "Virtua Health & Wellness Center - Berlin",
        "old_name": "West Jersey Hospital",
        "opening_hours": "24/7",
        "operator": "Virtua",
        "phone": "+1 856 322 3000",
        "website": "https://www.virtua.org/locations/health-wellness-center-berlin",
        "@geometry": "center"
      },
      "geometry": {
        "type": "Point",
        "coordinates": [
          -74.9203873,
          39.7813194
        ]
      },
      "id": "way/484953108"
    },
    {
      "type": "Feature",
      "properties": {
        "@id": "way/510319574",
        "addr:city": "Berlin",
        "addr:country": "DE",
        "addr:housenumber": "63",
        "addr:postcode": "14109",
        "addr:street": "Königstraße",
        "addr:suburb": "Wannsee",
        "alt_name": "Immanuel-Krankenhaus Rheumaklinik Berlin-Wannsee und Zentrum für Naturheilkunde",
        "amenity": "hospital",
        "contact:email": "berlin@immanuel.de",
        "contact:fax": "+49 30 80505288",
        "contact:phone": "+49 30 805050",
        "contact:website": "http://www.immanuel.de/einrichtungen/berlin-wannsee",
        "healthcare": "hospital",
        "internet_access": "wlan",
        "internet_access:fee": "no",
        "internet_access:password": "IAD-PUBLIC",
        "internet_access:ssid": "iad-public",
        "member_of": "Immanuel Diakonie",
        "name": "Immanuel Krankenhaus Berlin",
        "wheelchair": "yes",
        "wikidata": "Q30267075",
        "@geometry": "center"
      },
      "geometry": {
        "type": "Point",
        "coordinates": [
          13.1640021,
          52.4194854
        ]
      },
      "id": "way/510319574"
    },
    {
      "type": "Feature",
      "properties": {
        "@id": "way/543927798",
        "amenity": "hospital",
        "name": "Heiligenfeld Klinik Berlin",
        "website": "https://www.heiligenfeld.de/kliniken/heiligenfeld-klinik-berlin/",
        "wikidata": "Q97120043",
        "wikimedia_commons": "File:20230130 xl 151617369-Heiligenfeld Klinik Berlin.jpg",
        "@geometry": "center"
      },
      "geometry": {
        "type": "Point",
        "coordinates": [
          13.5694649,
          52.51781
        ]
      },
      "id": "way/543927798"
    },
    {
      "type": "Feature",
      "properties": {
        "@id": "way/550182745",
        "amenity": "hospital",
        "building": "hospital",
        "healthcare": "hospital",
        "healthcare:speciality": "cardiology",
        "name": "Peninsula Cardiology Associates, P.A.",
        "@geometry": "center"
      },
      "geometry": {
        "type": "Point",
        "coordinates": [
          -75.2117565,
          38.329309
        ]
      },
      "id": "way/550182745"
    },
    {
      "type": "Feature",
      "properties": {
        "@id": "way/567540939",
        "amenity": "hospital",
        "emergency": "yes",
        "healthcare": "hospital",
        "name": "Alexianer St. Joseph Krankenhaus Berlin-Weißensee",
        "operator": "Alexianer St. Joseph Berlin-Weißensee GmbH",
        "wheelchair": "yes",
        "@geometry": "center"
      },
      "geometry": {
        "type": "Point",
        "coordinates": [
          13.4691304,
          52.5505504
        ]
      },
      "id": "way/567540939"
    },
    {
      "type": "Feature",
      "properties": {
        "@id": "way/583306346",
        "addr:city": "Berlin",
        "addr:housenumber": "1",
        "addr:postcode": "10117",
        "addr:street": "Charitéplatz",
        "amenity": "hospital",
        "emergency": "yes",
        "healthcare": "hospital",
        "name": "Campus Charité Mitte",
        "operator:wikidata": "Q162684",
        "short_name": "CCM",
        "website": "https://www.charite.de/",
        "wheelchair": "yes",
        "wikidata": "Q64712111",
        "wikimedia_commons": "Category:Campus Charité Mitte",
        "wikipedia": "de:Charité",
        "@geometry": "center"
      },
      "geometry": {
        "type": "Point",
        "coordinates": [
          13.3778766,
          52.5257591
        ]
      },
      "id": "way/583306346"
    },
    {
      "type": "Feature",
      "properties": {
        "@id": "way/584926208",
        "addr:city": "Berlin",
        "addr:housenumber": "350",
        "addr:postcode": "05602",
        "addr:street": "Fisher Road",
        "amenity": "hospital",
        "beds": "25",
        "emergency": "no",
        "healthcare": "hospital",
        "healthcare:speciality": "psychiatry",
        "name": "Vermont Psychiatric Care Hospital",
        "operator": "Vermont Department of Mental Health",
        "phone": "+1 802 828 3300",
        "website": "https://mentalhealth.vermont.gov/intervention-and-recovery/vermont-psychiatric-care-hospital",
        "@geometry": "center"
      },
      "geometry": {
        "type": "Point",
        "coordinates": [
          -72.5649494,
          44.2229062
        ]
      },
      "id": "way/584926208"
    },
    {
      "type": "Feature",
      "properties": {
        "@id": "way/640582918",
        "addr:city": "Berlin",
        "addr:country": "DE",
        "addr:housenumber": "3-5",
        "addr:postcode": "12207",
        "addr:street": "Promenadenstraße",
        "addr:suburb": "Lichterfelde",
        "amenity": "hospital",
        "emergency": "yes",
        "healthcare": "hospital",
        "name": "Krankenhaus Bethel",
        "phone": "+49 30 77910",
        "toilets:wheelchair": "yes",
        "website": "https://www.bethelnet.de/kliniken/krankenhaus-bethel-berlin.html",
        "wheelchair": "yes",
        "@geometry": "center"
      },
      "geometry": {
        "type": "Point",
        "coordinates": [
          13.3266442,
          52.4324342
        ]
      },
      "id": "way/640582918"
    },
    {
      "type": "Feature",
      "properties": {
        "@id": "way/660951731",
        "addr:city": "Berlin",
        "addr:country": "DE",
        "addr:housenumber": "123-143",
        "addr:postcode": "12249",
        "addr:street": "Gallwitzallee",
        "addr:suburb": "Lankwitz",
        "amenity": "hospital",
        "emergency": "yes",
        "healthcare": "hospital",
        "name": "Sankt-Marien-Krankenhaus",
        "phone": "+49 30 76783-0",
        "website": "https://www.marienkrankenhaus-berlin.de/",
        "@geometry": "center"
      },
      "geometry": {
        "type": "Point",
        "coordinates": [
          13.3491945,
          52.4243752
        ]
      },
      "id": "way/660951731"
    },
    {
      "type": "Feature",
      "properties": {
        "@id": "way/670481735",
        "addr:city": "Berlin",
        "addr:country": "DE",
        "addr:housenumber": "26",
        "addr:postcode": "12683",
        "addr:street": "Blumberger Damm",
        "addr:suburb": "Biesdorf",
        "amenity": "hospital",
        "email": "kontakt@arona-kliniken.de",
        "fax": "+49 30 549757444",
        "health_facility:type": "hospital",
        "health_specialty:geriatrics": "main",
        "health_specialty:occupational_therapy": "yes",
        "health_specialty:phoniatrics": "yes",
        "health_specialty:physiotherapy": "yes",
        "healthcare": "hospital",
        "medical_system:western": "yes",
        "name": "Arona Klinik für Altersmedizin",
        "operator": "DZG Berlin Betriebs GmbH & Co. KG",
        "phone": "+49 30 5497570",
        "website": "https://arona-kliniken.de/",
        "wheelchair": "yes",
        "wikidata": "Q31122428",
        "wikimedia_commons": "File:20230113 xl 132957543-Arona Klinik für Altersmedizin.jpg",
        "@geometry": "center"
      },
      "geometry": {
        "type": "Point",
        "coordinates": [
          13.5640162,
          52.5155394
        ]
      },
      "id": "way/670481735"
    },
    {
      "type": "Feature",
      "properties": {
        "@id": "way/700483283",
        "addr:city": "Berlin",
        "addr:country": "DE",
        "addr:housenumber": "49",
        "addr:postcode": "10249",
        "addr:street": "Landsberger Allee",
        "addr:suburb": "Friedrichshain",
        "alt_name": "Vivantes Klinikum im Friedrichshain",
        "amenity": "hospital",
        "beds": "964",
        "contact:website": "https://www.vivantes.de/klinikum-im-friedrichshain",
        "emergency": "yes",
        "healthcare": "hospital",
        "name": "Klinikum im Friedrichshain",
        "operator": "Vivantes",
        "operator:wikidata": "Q878059",
        "operator:wikipedia": "de:Vivantes",
        "wikidata": "Q1774663",
        "wikimedia_commons": "Category:Klinikum im Friedrichshain",
        "wikipedia": "de:Klinikum im Friedrichshain",
        "@geometry": "center"
      },
      "geometry": {
        "type": "Point",
        "coordinates": [
          13.4394766,
          52.5255323
        ]
      },
      "id": "way/700483283"
    },
    {
      "type": "Feature",
      "properties": {
        "@id": "way/1080311365",
        "addr:city": "Berlin",
        "addr:country": "DE",
        "addr:housenumber": "24-26",
        "addr:postcode": "10785",
        "addr:street": "Lützowstraße",
        "addr:suburb": "Tiergarten",
        "amenity": "hospital",
        "healthcare": "hospital",
        "landuse": "residential",
        "name": "Evangelische Elisabeth Klinik",
        "operator": "Johannesstift Diakonie",
        "phone": "+49 30 25061",
        "toilets:wheelchair": "yes",
        "website": "https://www.pgdiakonie.de/evangelische-elisabeth-klinik",
        "wheelchair": "yes",
        "@geometry": "center"
      },
      "geometry": {
        "type": "Point",
        "coordinates": [
          13.3641845,
          52.5042123
        ]
      },
      "id": "way/1080311365"
    },
    {
      "type": "Feature",
      "properties": {
        "@id": "way/1104779811",
        "amenity": "hospital",
        "contact:website": "https://www.klinik-schoeneberg.de",
        "healthcare": "centre",
        "name": "Klinik Schöneberg",
        "wheelchair": "yes",
        "@geometry": "center"
      },
      "geometry": {
        "type": "Point",
        "coordinates": [
          13.3446565,
          52.4986384
        ]
      },
      "id": "way/1104779811"
    },
    {
      "type": "Feature",
      "properties": {
        "@id": "node/1257340412",
        "amenity": "hospital",
        "healthcare": "hospital",
        "name": "Klinik für Kinder- und Jugendmedizin",
        "operator": "St. Joseph Krankenhaus",
        "website": "https://www.sjk.de/kliniken/klinik-fuer-kinder-jugendmedizin"
      },
      "geometry": {
        "type": "Point",
        "coordinates": [
          13.3717015,
          52.47781
        ]
      },
      "id": "node/1257340412"
    },
    {
      "type": "Feature",
      "properties": {
        "@id": "node/10573646542",
        "addr:city": "Berlin",
        "addr:housenumber": "256-258",
        "addr:postcode": "12049",
        "addr:street": "Hermannstraße",
        "amenity": "hospital",
        "emergency": "yes",
        "healthcare": "hospital",
        "healthcare:speciality": "infectious_diseases",
        "level": "3",
        "name": "Checkpoint BLN",
        "wheelchair": "yes"
      },
      "geometry": {
        "type": "Point",
        "coordinates": [
          13.42456,
          52.4858353
        ]
      },
      "id": "node/10573646542"
    }
  ]
}